{"type": "FeatureCollection", "features": [ {"type": "Feature", "properties": {"norad_id": 58662, "name": "TIANMU-1 21", "group": "weather", "lat": 41.15873296293309, "lon": -58.017400216194495, "alt_km": 464.71009111402964, "timestamp": "2025-12-27T23:26:36.996461+00:00", "meta": {"OBJECT_NAME": "TIANMU-1 21", "OBJECT_ID": "2023-208C", "EPOCH": "2025-12-27T13:26:06.345888", "MEAN_MOTION": 15.3187618, "ECCENTRICITY": 0.0006605, "INCLINATION": 97.437, "RA_OF_ASC_NODE": 115.0072, "ARG_OF_PERICENTER": 199.7958, "MEAN_ANOMALY": 160.3028, "EPHEMERIS_TYPE": 0, "CLASSIFICATION_TYPE": "U", "NORAD_CAT_ID": 58662, "ELEMENT_SET_NO": 999, "REV_AT_EPOCH": 11126, "BSTAR": 0.0004142, "MEAN_MOTION_DOT": 0.00012685, "MEAN_MOTION_DDOT": 0}, "tle": {"line1": "1 58662U 23208C   25361.55979567  .00012685  00000+0  41420-3 0  9997", "line2": "2 58662  97.4370 115.0072 0006605 199.7958 160.3028 15.31876180111261"}}, "geometry": {"type": "Point", "coordinates": [-58.017400216194495, 41.15873296293309]}}, {"type": "Feature", "properties": {"norad_id": 58663, "name": "TIANMU-1 22", "group": "weather", "lat": -22.536356089512037, "lon": -70.06946229888642, "alt_km": 485.55505241200353, "timestamp": "2025-12-27T23:26:36.996471+00:00", "meta": {"OBJECT_NAME": "TIANMU-1 22", "OBJECT_ID": "2023-208D", "EPOCH": "2025-12-27T13:07:42.165984", "MEAN_MOTION": 15.27859911, "ECCENTRICITY": 0.000314, "INCLINATION": 97.4377, "RA_OF_ASC_NODE": 112.6092, "ARG_OF_PERICENTER": 213.4482, "MEAN_ANOMALY": 146.6559, "EPHEMERIS_TYPE": 0, "CLASSIFICATION_TYPE": "U", "NORAD_CAT_ID": 58663, "ELEMENT_SET_NO": 999, "REV_AT_EPOCH": 11109, "BSTAR": 0.00037376, "MEAN_MOTION_DOT": 0.00010097, "MEAN_MOTION_DDOT": 0}, "tle": {"line1": "1 58663U 23208D   25361.54701581  .00010097  00000+0  37376-3 0  9996", "line2": "2 58663  97.4377 112.6092 0003140 213.4482 146.6559 15.27859911111096"}}, "geometry": {"type": "Point", "coordinates": [-70.06946229888642, -22.536356089512037]}}, {"type": "Feature", "properties": {"norad_id": 58700, "name": "TIANMU-1 15", "group": "weather", "lat": 24.0022208680454, "lon": 6.735546150074022, "alt_km": 490.0265579669149, "timestamp": "2025-12-27T23:26:36.996481+00:00", "meta": {"OBJECT_NAME": "TIANMU-1 15", "OBJECT_ID": "2024-004A", "EPOCH": "2025-12-27T13:18:41.080032", "MEAN_MOTION": 15.24608534, "ECCENTRICITY": 0.0006168, "INCLINATION": 97.4631, "RA_OF_ASC_NODE": 182.9687, "ARG_OF_PERICENTER": 227.356, "MEAN_ANOMALY": 132.7158, "EPHEMERIS_TYPE": 0, "CLASSIFICATION_TYPE": "U", "NORAD_CAT_ID": 58700, "ELEMENT_SET_NO": 999, "REV_AT_EPOCH": 10960, "BSTAR": 0.00031135, "MEAN_MOTION_DOT": 7.612e-05, "MEAN_MOTION_DDOT": 0}, "tle": {"line1": "1 58700U 24004A   25361.55464213  .00007612  00000+0  31135-3 0  9998", "line2": "2 58700  97.4631 182.9687 0006168 227.3560 132.7158 15.24608534109600"}}, "geometry": {"type": "Point", "coordinates": [6.735546150074022, 24.0022208680454]}}, {"type": "Feature", "properties": {"norad_id": 58701, "name": "TIANMU-1 16", "group": "weather", "lat": -58.019662525624334, "lon": -9.343345421883782, "alt_km": 495.966279368934, "timestamp": "2025-12-27T23:26:36.996491+00:00", "meta": {"OBJECT_NAME": "TIANMU-1 16", "OBJECT_ID": "2024-004B", "EPOCH": "2025-12-27T12:56:54.665376", "MEAN_MOTION": 15.24636112, "ECCENTRICITY": 0.0004498, "INCLINATION": 97.4571, "RA_OF_ASC_NODE": 182.3306, "ARG_OF_PERICENTER": 228.9533, "MEAN_ANOMALY": 131.1316, "EPHEMERIS_TYPE": 0, "CLASSIFICATION_TYPE": "U", "NORAD_CAT_ID": 58701, "ELEMENT_SET_NO": 999, "REV_AT_EPOCH": 10960, "BSTAR": 0.00033436, "MEAN_MOTION_DOT": 8.185e-05, "MEAN_MOTION_DDOT": 0}, "tle": {"line1": "1 58701U 24004B   25361.53952159  .00008185  00000+0  33436-3 0  9990", "line2": "2 58701  97.4571 182.3306 0004498 228.9533 131.1316 15.24636112109609"}}, "geometry": {"type": "Point", "coordinates": [-9.343345421883782, -58.019662525624334]}}, {"type": "Feature", "properties": {"norad_id": 58702, "name": "TIANMU-1 17", "group": "weather", "lat": -34.11526637386569, "lon": -171.72307127480204, "alt_km": 498.37309137510147, "timestamp": "2025-12-27T23:26:36.996504+00:00", "meta": {"OBJECT_NAME": "TIANMU-1 17", "OBJECT_ID": "2024-004C", "EPOCH": "2025-12-27T12:34:07.294656", "MEAN_MOTION": 15.24679145, "ECCENTRICITY": 0.0003686, "INCLINATION": 97.4605, "RA_OF_ASC_NODE": 182.7326, "ARG_OF_PERICENTER": 229.0163, "MEAN_ANOMALY": 131.0756, "EPHEMERIS_TYPE": 0, "CLASSIFICATION_TYPE": "U", "NORAD_CAT_ID": 58702, "ELEMENT_SET_NO": 999, "REV_AT_EPOCH": 10959, "BSTAR": 0.00034344, "MEAN_MOTION_DOT": 8.42e-05, "MEAN_MOTION_DDOT": 0}, "tle": {"line1": "1 58702U 24004C   25361.52369554  .00008420  00000+0  34344-3 0  9992", "line2": "2 58702  97.4605 182.7326 0003686 229.0163 131.0756 15.24679145109591"}}, "geometry": {"type": "Point", "coordinates": [-171.72307127480204, -34.11526637386569]}}, {"type": "Feature", "properties": {"norad_id": 58703, "name": "TIANMU-1 18", "group": "weather", "lat": 55.507533267929624, "lon": 172.38482079030788, "alt_km": 488.60248016782225, "timestamp": "2025-12-27T23:26:36.996515+00:00", "meta": {"OBJECT_NAME": "TIANMU-1 18", "OBJECT_ID": "2024-004D", "EPOCH": "2025-12-27T12:10:18.622272", "MEAN_MOTION": 15.24660988, "ECCENTRICITY": 0.0003081, "INCLINATION": 97.4622, "RA_OF_ASC_NODE": 182.9145, "ARG_OF_PERICENTER": 225.2055, "MEAN_ANOMALY": 134.8932, "EPHEMERIS_TYPE": 0, "CLASSIFICATION_TYPE": "U", "NORAD_CAT_ID": 58703, "ELEMENT_SET_NO": 999, "REV_AT_EPOCH": 10959, "BSTAR": 0.00032058, "MEAN_MOTION_DOT": 7.849e-05, "MEAN_MOTION_DDOT": 0}, "tle": {"line1": "1 58703U 24004D   25361.50715998  .00007849  00000+0  32058-3 0  9992", "line2": "2 58703  97.4622 182.9145 0003081 225.2055 134.8932 15.24660988109591"}}, "geometry": {"type": "Point", "coordinates": [172.38482079030788, 55.507533267929624]}}, {"type": "Feature", "properties": {"norad_id": 58990, "name": "INSAT-3DS", "group": "weather", "lat": 0.06551076060950112, "lon": 170.43434862239164, "alt_km": 35788.0387556308, "timestamp": "2025-12-27T23:26:36.996526+00:00", "meta": {"OBJECT_NAME": "INSAT-3DS", "OBJECT_ID": "2024-033A", "EPOCH": "2025-12-27T03:07:12.485568", "MEAN_MOTION": 1.00270739, "ECCENTRICITY": 0.00013755, "INCLINATION": 0.0646, "RA_OF_ASC_NODE": 98.7441, "ARG_OF_PERICENTER": 178.0436, "MEAN_ANOMALY": 307.9854, "EPHEMERIS_TYPE": 0, "CLASSIFICATION_TYPE": "U", "NORAD_CAT_ID": 58990, "ELEMENT_SET_NO": 999, "REV_AT_EPOCH": 4534, "BSTAR": 0, "MEAN_MOTION_DOT": -1.34e-06, "MEAN_MOTION_DDOT": 0}, "tle": {"line1": "1 58990U 24033A   25361.13000562 -.00000134  00000+0  00000+0 0  9994", "line2": "2 58990   0.0646  98.7441 0001375 178.0436 307.9854  1.00270739 45348"}}, "geometry": {"type": "Point", "coordinates": [170.43434862239164, 0.06551076060950112]}}, {"type": "Feature", "properties": {"norad_id": 59051, "name": "METEOR-M2 4", "group": "weather", "lat": 36.19384388229466, "lon": -47.768589710376496, "alt_km": 814.2386360758337, "timestamp": "2025-12-27T23:26:36.996537+00:00", "meta": {"OBJECT_NAME": "METEOR-M2 4", "OBJECT_ID": "2024-039A", "EPOCH": "2025-12-27T13:08:32.576928", "MEAN_MOTION": 14.224036, "ECCENTRICITY": 0.0006294, "INCLINATION": 98.6787, "RA_OF_ASC_NODE": 318.2258, "ARG_OF_PERICENTER": 313.4521, "MEAN_ANOMALY": 46.6132, "EPHEMERIS_TYPE": 0, "CLASSIFICATION_TYPE": "U", "NORAD_CAT_ID": 59051, "ELEMENT_SET_NO": 999, "REV_AT_EPOCH": 9486, "BSTAR": 4.4699e-05, "MEAN_MOTION_DOT": 5.6e-07, "MEAN_MOTION_DDOT": 0}, "tle": {"line1": "1 59051U 24039A   25361.54759927  .00000056  00000+0  44699-4 0  9999", "line2": "2 59051  98.6787 318.2258 0006294 313.4521  46.6132 14.22403600 94867"}}, "geometry": {"type": "Point", "coordinates": [-47.768589710376496, 36.19384388229466]}}, {"type": "Feature", "properties": {"norad_id": 60133, "name": "GOES 19", "group": "weather", "lat": 0.0001611493351240347, "lon": 13.160926084151205, "alt_km": 35783.808597284784, "timestamp": "2025-12-27T23:26:36.996548+00:00", "meta": {"OBJECT_NAME": "GOES 19", "OBJECT_ID": "2024-119A", "EPOCH": "2025-12-27T10:55:54.710976", "MEAN_MOTION": 1.00269901, "ECCENTRICITY": 0.000118, "INCLINATION": 0.0204, "RA_OF_ASC_NODE": 187.4138, "ARG_OF_PERICENTER": 130.9211, "MEAN_ANOMALY": 226.6358, "EPHEMERIS_TYPE": 0, "CLASSIFICATION_TYPE": "U", "NORAD_CAT_ID": 60133, "ELEMENT_SET_NO": 999, "REV_AT_EPOCH": 524, "BSTAR": 0, "MEAN_MOTION_DOT": -2.26e-06, "MEAN_MOTION_DDOT": 0}, "tle": {"line1": "1 60133U 24119A   25361.45549434 -.00000226  00000+0  00000+0 0  9994", "line2": "2 60133   0.0204 187.4138 0001180 130.9211 226.6358  1.00269901  5241"}}, "geometry": {"type": "Point", "coordinates": [13.160926084151205, 0.0001611493351240347]}}, {"type": "Feature", "properties": {"norad_id": 65815, "name": "FENGYUN 3H", "group": "weather", "lat": 40.48388005132391, "lon": 128.71278505877947, "alt_km": 821.8822340216493, "timestamp": "2025-12-27T23:26:36.996559+00:00", "meta": {"OBJECT_NAME": "FENGYUN 3H", "OBJECT_ID": "2025-219A", "EPOCH": "2025-12-27T10:57:12.394080", "MEAN_MOTION": 14.19908728, "ECCENTRICITY": 8.87e-05, "INCLINATION": 98.6603, "RA_OF_ASC_NODE": 300.7285, "ARG_OF_PERICENTER": 109.9954, "MEAN_ANOMALY": 250.1318, "EPHEMERIS_TYPE": 0, "CLASSIFICATION_TYPE": "U", "NORAD_CAT_ID": 65815, "ELEMENT_SET_NO": 999, "REV_AT_EPOCH": 1301, "BSTAR": 7.7602e-05, "MEAN_MOTION_DOT": 1.22e-06, "MEAN_MOTION_DDOT": 0}, "tle": {"line1": "1 65815U 25219A   25361.45639345  .00000122  00000+0  77602-4 0  9990", "line2": "2 65815  98.6603 300.7285 0000887 109.9954 250.1318 14.19908728 13018"}}, "geometry": {"type": "Point", "coordinates": [128.71278505877947, 40.48388005132391]}}]}